[{"OBJECT_NAME":"NAPA-2","OBJECT_ID":"2021-059CN","EPOCH":"2026-03-09T23:29:49.102656","MEAN_MOTION":15.70952391,"ECCENTRICITY":0.00036606,"INCLINATION":97.6849,"RA_OF_ASC_NODE":256.4978,"ARG_OF_PERICENTER":316.466,"MEAN_ANOMALY":43.6312,"EPHEMERIS_TYPE":0,"CLASSIFICATION_TYPE":"U","NORAD_CAT_ID":48963,"ELEMENT_SET_NO":999,"REV_AT_EPOCH":26212,"BSTAR":0.00074486022,"MEAN_MOTION_DOT":0.00093758,"MEAN_MOTION_DDOT":0},{"OBJECT_NAME":"STARLINK-11228 [DTC]","OBJECT_ID":"2024-141A","EPOCH":"2026-03-09T10:35:09.651552","MEAN_MOTION":15.69704283,"ECCENTRICITY":0.00014813,"INCLINATION":53.1598,"RA_OF_ASC_NODE":87.5023,"ARG_OF_PERICENTER":99.6375,"MEAN_ANOMALY":260.481,"EPHEMERIS_TYPE":0,"CLASSIFICATION_TYPE":"U","NORAD_CAT_ID":60398,"ELEMENT_SET_NO":999,"REV_AT_EPOCH":9165,"BSTAR":-4.437756e-6,"MEAN_MOTION_DOT":-1.127e-5,"MEAN_MOTION_DDOT":0}]
